[{"OBJECT_NAME":"ELECTRON KICK STAGE R/B","OBJECT_ID":"2026-088K","EPOCH":"2026-04-23T20:43:02.913024","MEAN_MOTION":15.65735459,"ECCENTRICITY":0.0264623,"INCLINATION":97.494,"RA_OF_ASC_NODE":264.5593,"ARG_OF_PERICENTER":262.6769,"MEAN_ANOMALY":94.4348,"EPHEMERIS_TYPE":0,"CLASSIFICATION_TYPE":"U","NORAD_CAT_ID":68801,"ELEMENT_SET_NO":999,"REV_AT_EPOCH":11,"BSTAR":0.00029970058,"MEAN_MOTION_DOT":0.00240775,"MEAN_MOTION_DDOT":2.363788e-6}]
