ELECTRON KICK STAGE R/B
1 68801U 26088K   26113.86322816  .00240775  23638-5  29970-3 0  9998
2 68801  97.4940 264.5593 0264623 262.6769  94.4348 15.65735459   117
